[{"OBJECT_NAME":"TIANMU-1 08","OBJECT_ID":"2023-101B","EPOCH":"2026-03-07T00:03:25.475616","MEAN_MOTION":15.29204229,"ECCENTRICITY":0.00063808,"INCLINATION":97.2717,"RA_OF_ASC_NODE":118.7901,"ARG_OF_PERICENTER":134.2174,"MEAN_ANOMALY":225.9592,"EPHEMERIS_TYPE":0,"CLASSIFICATION_TYPE":"U","NORAD_CAT_ID":57400,"ELEMENT_SET_NO":999,"REV_AT_EPOCH":14602,"BSTAR":1.4774513e-5,"MEAN_MOTION_DOT":3.46e-6,"MEAN_MOTION_DDOT":0},{"OBJECT_NAME":"STARLINK-34609","OBJECT_ID":"2025-147P","EPOCH":"2026-03-09T18:22:24.814272","MEAN_MOTION":15.30183918,"ECCENTRICITY":0.00011648,"INCLINATION":53.1589,"RA_OF_ASC_NODE":232.4432,"ARG_OF_PERICENTER":75.4751,"MEAN_ANOMALY":284.6379,"EPHEMERIS_TYPE":0,"CLASSIFICATION_TYPE":"U","NORAD_CAT_ID":64768,"ELEMENT_SET_NO":999,"REV_AT_EPOCH":3890,"BSTAR":0.0013162148,"MEAN_MOTION_DOT":0.00038808,"MEAN_MOTION_DDOT":0}]
